API VERSION: 1.2
API SOURCE: NASA/JPL Horizons API



*******************************************************************************
Ephemeris / API_USER Wed Apr 15 10:19:43 2026 Pasadena, USA      / Horizons
*******************************************************************************
Target body name: Saturn (699)                    {source: sat441l}
Center body name: Earth (399)                     {source: DE441}
Center-site name: BODY CENTER
*******************************************************************************
Start time      : A.D. 2034-Jun-23 09:24:00.0000 TDB
Stop  time      : A.D. 2034-Jun-25 09:24:00.0000 TDB
Step-size       : 60 minutes
*******************************************************************************
Center geodetic : 0.0, 0.0, 0.0                   {E-lon(deg),Lat(deg),Alt(km)}
Center cylindric: 0.0, 0.0, 0.0                   {E-lon(deg),Dxy(km),Dz(km)}
Center radii    : 6378.137, 6378.137, 6356.752 km {Equator_a, b, pole_c}
Output units    : AU-D
Calendar mode   : Mixed Julian/Gregorian
Output type     : GEOMETRIC cartesian states
Output format   : 3 (position, velocity, LT, range, range-rate)
EOP file        : eop.260414.p260711
EOP coverage    : DATA-BASED 1962-JAN-20 TO 2026-APR-14. PREDICTS-> 2026-JUL-10
Reference frame : Ecliptic of J2000.0
*******************************************************************************
            JDTDB,            Calendar Date (TDB),                      X,                      Y,                      Z,                     VX,                     VY,                     VZ,                     LT,                     RG,                     RR,
**************************************************************************************************************************************************************************************************************************************************************************
$$SOE
2464136.891666667, A.D. 2034-Jun-23 09:24:00.0000, -3.642432729608085E+00,  9.309846179262248E+00, -2.451584283969817E-04, -2.233459497090559E-02, -2.641109949230055E-03,  2.557179662034593E-04,  5.773801364948205E-02,  9.997027164679844E+00,  5.678074964510601E-03,
2464136.933333333, A.D. 2034-Jun-23 10:24:00.0000, -3.643363328151531E+00,  9.309735881604503E+00, -2.345035599151904E-04, -2.233413373979880E-02, -2.653177436520831E-03,  2.557156896609025E-04,  5.773937892409168E-02,  9.997263554650626E+00,  5.668643461937245E-03,
2464136.975000000, A.D. 2034-Jun-23 11:24:00.0000, -3.644293907305360E+00,  9.309625081158130E+00, -2.238487902175510E-04, -2.233366427365182E-02, -2.665243801312155E-03,  2.557132241319707E-04,  5.774074192891954E-02,  9.997499551620884E+00,  5.659210942390795E-03,
2464137.016666667, A.D. 2034-Jun-23 12:24:00.0000, -3.645224466727001E+00,  9.309513777970137E+00, -2.131941272137444E-04, -2.233318659943748E-02, -2.677309032738333E-03,  2.557105683374244E-04,  5.774210266372312E-02,  9.997735155548616E+00,  5.649777423514545E-03,
2464137.058333333, A.D. 2034-Jun-23 13:24:00.0000, -3.646155006075020E+00,  9.309401972087912E+00, -2.025395788250059E-04, -2.233270074410882E-02, -2.689373123535199E-03,  2.557077227770304E-04,  5.774346112826372E-02,  9.997970366392497E+00,  5.640342919600188E-03,
2464137.100000000, A.D. 2034-Jun-23 14:24:00.0000, -3.647085525009079E+00,  9.309289663559076E+00, -1.918851529239621E-04, -2.233220673362362E-02, -2.701436069630575E-03,  2.557046894534091E-04,  5.774481732230564E-02,  9.998205184111722E+00,  5.630907441613962E-03,
2464137.141666667, A.D. 2034-Jun-23 15:24:00.0000, -3.648016023189892E+00,  9.309176852431362E+00, -1.812308572688894E-04, -2.233170459224325E-02, -2.713497869561592E-03,  2.557014715304301E-04,  5.774617124561553E-02,  9.998439608665878E+00,  5.621470997483471E-03,
2464137.183333333, A.D. 2034-Jun-23 16:24:00.0000, -3.648946500279146E+00,  9.309063538752524E+00, -1.705766994718398E-04, -2.233119434218164E-02, -2.725558523869983E-03,  2.556980730066055E-04,  5.774752289796153E-02,  9.998673640014836E+00,  5.612033592532212E-03,
2464137.225000000, A.D. 2034-Jun-23 17:24:00.0000, -3.649876955939401E+00,  9.308949722570256E+00, -1.599226869623829E-04, -2.233067600361915E-02, -2.737618034633572E-03,  2.556944984828663E-04,  5.774887227911290E-02,  9.998907278118622E+00,  5.602595229920198E-03,
2464137.266666667, A.D. 2034-Jun-23 18:24:00.0000, -3.650807389834031E+00,  9.308835403932141E+00, -1.492688269716690E-04, -2.233014959501193E-02, -2.749676405255511E-03,  2.556907530796783E-04,  5.775021938883933E-02,  9.999140522937379E+00,  5.593155910952391E-03,
2464137.308333333, A.D. 2034-Jun-23 19:24:00.0000, -3.651737801627140E+00,  9.308720582885588E+00, -1.386151265001562E-04, -2.232961513351898E-02, -2.761733640536090E-03,  2.556868425023655E-04,  5.775156422691069E-02,  9.999373374431249E+00,  5.583715635167248E-03,
2464137.350000000, A.D. 2034-Jun-23 20:24:00.0000, -3.652668190983535E+00,  9.308605259477776E+00, -1.279615923016728E-04, -2.232907263523664E-02, -2.773789746876547E-03,  2.556827731565924E-04,  5.775290679309644E-02,  9.999605832560324E+00,  5.574274400232284E-03,
2464137.391666667, A.D. 2034-Jun-23 21:24:00.0000, -3.653598557568660E+00,  9.308489433755584E+00, -1.173082308451679E-04, -2.232852211477221E-02, -2.785844732190060E-03,  2.556785520681085E-04,  5.775424708716530E-02,  9.999837897284554E+00,  5.564832201870916E-03,
2464137.433333333, A.D. 2034-Jun-23 22:24:00.0000, -3.654528901048509E+00,  9.308373105765549E+00, -1.066550483075395E-04, -2.232796358350576E-02, -2.797898604699749E-03,  2.556741861510117E-04,  5.775558510888481E-02,  1.000006956856368E+01,  5.555389034345581E-03,
2464137.475000000, A.D. 2034-Jun-23 23:24:00.0000, -3.655459221089422E+00,  9.308256275553910E+00, -9.600205061029075E-05, -2.232739704568192E-02, -2.809951369262777E-03,  2.556696800850123E-04,  5.775692085802100E-02,  1.000030084635722E+01,  5.545944892448937E-03,
2464137.516666667, A.D. 2034-Jun-24 00:24:00.0000, -3.656389517357729E+00,  9.308138943166853E+00, -8.534924356694926E-05, -2.232682250114595E-02, -2.822003027000941E-03,  2.556650363306361E-04,  5.775825433433909E-02,  1.000053173062449E+01,  5.536499772843538E-03,
2464137.558333333, A.D. 2034-Jun-24 01:24:00.0000, -3.657319789520059E+00,  9.308021108650312E+00, -7.469663276911592E-05, -2.232623995700695E-02, -2.834053582952322E-03,  2.556602598014102E-04,  5.775958553760309E-02,  1.000076222132465E+01,  5.527053671203748E-03,
2464137.600000000, A.D. 2034-Jun-24 02:24:00.0000, -3.658250037243091E+00,  9.307902772050221E+00, -6.404422372233024E-05, -2.232564941644756E-02, -2.846103038147814E-03,  2.556553530796229E-04,  5.776091446757655E-02,  1.000099231841676E+01,  5.517606585499906E-03,
2464137.641666667, A.D. 2034-Jun-24 03:24:00.0000, -3.659180260193780E+00,  9.307783933412399E+00, -5.339202177913358E-05, -2.232505088511327E-02, -2.858151393850635E-03,  2.556503190033699E-04,  5.776224112402238E-02,  1.000122202185975E+01,  5.508158514388598E-03,
2464137.683333333, A.D. 2034-Jun-24 04:24:00.0000, -3.660110458039244E+00,  9.307664592782729E+00, -4.274003224066961E-05, -2.232444436625860E-02, -2.870198645991470E-03,  2.556451575398964E-04,  5.776356550670374E-02,  1.000145133161264E+01,  5.498709460615947E-03,
2464137.725000000, A.D. 2034-Jun-24 05:24:00.0000, -3.661040630446769E+00,  9.307544750207310E+00, -3.208826043119102E-05, -2.232382986518253E-02, -2.882244788739557E-03,  2.556398678893107E-04,  5.776488761538472E-02,  1.000168024763456E+01,  5.489259429315874E-03,
2464137.766666667, A.D. 2034-Jun-24 06:24:00.0000, -3.661970777083931E+00,  9.307424405732483E+00, -2.143671170284078E-05, -2.232320739043177E-02, -2.894289816762270E-03,  2.556344496987829E-04,  5.776620744983080E-02,  1.000190876988492E+01,  5.479808426348769E-03,
2464137.808333333, A.D. 2034-Jun-24 07:24:00.0000, -3.662900897618716E+00,  9.307303559404776E+00, -1.078539140019167E-05, -2.232257695327747E-02, -2.906333726470873E-03,  2.556289036459276E-04,  5.776752500980879E-02,  1.000213689832333E+01,  5.470356456952372E-03,
2464137.850000000, A.D. 2034-Jun-24 08:24:00.0000, -3.663830991719624E+00,  9.307182211270829E+00, -1.343048160202251E-07, -2.232193856646305E-02, -2.918376516517513E-03,  2.556232315966931E-04,  5.776884029508662E-02,  1.000236463290963E+01,  5.460903524822396E-03,
2464137.891666667, A.D. 2034-Jun-24 09:24:00.0000, -3.664761059055689E+00,  9.307060361377275E+00,  1.051654285730199E-05, -2.232129224283801E-02, -2.930418187771017E-03,  2.556174364962501E-04,  5.777015330543286E-02,  1.000259197360372E+01,  5.451449631635640E-03,
2464137.933333333, A.D. 2034-Jun-24 10:24:00.0000, -3.665691099296459E+00,  9.306938009770681E+00,  2.116714656805005E-05, -2.232063799421223E-02, -2.942458742959166E-03,  2.556115221110239E-04,  5.777146404061621E-02,  1.000281892036558E+01,  5.441994776963382E-03,
2464137.975000000, A.D. 2034-Jun-24 11:24:00.0000, -3.666621112111943E+00,  9.306815156497475E+00,  3.181750143542655E-05, -2.231997583057179E-02, -2.954498186125419E-03,  2.556054927059892E-04,  5.777277250040505E-02,  1.000304547315509E+01,  5.432538958489256E-03,
2464138.016666667, A.D. 2034-Jun-24 12:24:00.0000, -3.667551097172518E+00,  9.306691801603886E+00,  4.246760275832713E-05, -2.231930575967256E-02, -2.966536522010297E-03,  2.555993527133831E-04,  5.777407868456703E-02,  1.000327163193202E+01,  5.423082172435074E-03,
2464138.058333333, A.D. 2034-Jun-24 13:24:00.0000, -3.668481054148836E+00,  9.306567945135951E+00,  5.311744601812947E-05, -2.231862778695673E-02, -2.978573755433671E-03,  2.555931064268314E-04,  5.777538259286872E-02,  1.000349739665595E+01,  5.413624414103888E-03,
2464138.100000000, A.D. 2034-Jun-24 14:24:00.0000, -3.669410982711730E+00,  9.306443587139515E+00,  6.376702687271684E-05, -2.231794191570781E-02, -2.990609890725001E-03,  2.555867577381117E-04,  5.777668422507555E-02,  1.000372276728628E+01,  5.404165678465722E-03,
